CCSDS_OMM_VERS = 2.0
CREATION_DATE  = 
ORIGINATOR     = 

OBJECT_NAME    = 1998-067XU
OBJECT_ID      = 1998-067XU
CENTER_NAME    = EARTH
REF_FRAME      = TEME
TIME_SYSTEM    = UTC
MEAN_ELEMENT_THEORY = SGP/SGP4

EPOCH          = 2026-01-27T16:20:17.991456
MEAN_MOTION    = 15.58982264
ECCENTRICITY   = .00029305
INCLINATION    = 51.6287
RA_OF_ASC_NODE = 273.0686
ARG_OF_PERICENTER = 133.1827
MEAN_ANOMALY   = 226.9411

EPHEMERIS_TYPE = 0
CLASSIFICATION_TYPE = U
NORAD_CAT_ID   = 66908
ELEMENT_SET_NO = 999
REV_AT_EPOCH   = 876
BSTAR          = .1437332E-2
MEAN_MOTION_DOT = .115122E-2
MEAN_MOTION_DDOT = 0

CCSDS_OMM_VERS = 2.0
CREATION_DATE  = 
ORIGINATOR     = 

OBJECT_NAME    = SILVERSAT
OBJECT_ID      = 1998-067XV
CENTER_NAME    = EARTH
REF_FRAME      = TEME
TIME_SYSTEM    = UTC
MEAN_ELEMENT_THEORY = SGP/SGP4

EPOCH          = 2026-01-27T15:57:20.066112
MEAN_MOTION    = 15.60055974
ECCENTRICITY   = .0003364
INCLINATION    = 51.6289
RA_OF_ASC_NODE = 272.9632
ARG_OF_PERICENTER = 145.3172
MEAN_ANOMALY   = 214.8041

EPHEMERIS_TYPE = 0
CLASSIFICATION_TYPE = U
NORAD_CAT_ID   = 66909
ELEMENT_SET_NO = 999
REV_AT_EPOCH   = 876
BSTAR          = .15297E-2
MEAN_MOTION_DOT = .127884E-2
MEAN_MOTION_DDOT = 0

CCSDS_OMM_VERS = 2.0
CREATION_DATE  = 
ORIGINATOR     = 

OBJECT_NAME    = 1998-067XW
OBJECT_ID      = 1998-067XW
CENTER_NAME    = EARTH
REF_FRAME      = TEME
TIME_SYSTEM    = UTC
MEAN_ELEMENT_THEORY = SGP/SGP4

EPOCH          = 2026-01-27T16:06:42.958656
MEAN_MOTION    = 15.59170153
ECCENTRICITY   = .0001715
INCLINATION    = 51.6275
RA_OF_ASC_NODE = 273.0030
ARG_OF_PERICENTER = 126.6688
MEAN_ANOMALY   = 233.4462

EPHEMERIS_TYPE = 0
CLASSIFICATION_TYPE = U
NORAD_CAT_ID   = 66910
ELEMENT_SET_NO = 999
REV_AT_EPOCH   = 876
BSTAR          = .13023E-2
MEAN_MOTION_DOT = .104866E-2
MEAN_MOTION_DDOT = 0

CCSDS_OMM_VERS = 2.0
CREATION_DATE  = 
ORIGINATOR     = 

OBJECT_NAME    = 1998-067XX
OBJECT_ID      = 1998-067XX
CENTER_NAME    = EARTH
REF_FRAME      = TEME
TIME_SYSTEM    = UTC
MEAN_ELEMENT_THEORY = SGP/SGP4

EPOCH          = 2026-01-27T16:58:47.153280
MEAN_MOTION    = 15.61123558
ECCENTRICITY   = .00023995
INCLINATION    = 51.6266
RA_OF_ASC_NODE = 272.4942
ARG_OF_PERICENTER = 161.8337
MEAN_ANOMALY   = 198.2743

EPHEMERIS_TYPE = 0
CLASSIFICATION_TYPE = U
NORAD_CAT_ID   = 66911
ELEMENT_SET_NO = 999
REV_AT_EPOCH   = 876
BSTAR          = .15211687E-2
MEAN_MOTION_DOT = .132568E-2
MEAN_MOTION_DDOT = 0

CCSDS_OMM_VERS = 2.0
CREATION_DATE  = 
ORIGINATOR     = 

OBJECT_NAME    = 1998-067XY
OBJECT_ID      = 1998-067XY
CENTER_NAME    = EARTH
REF_FRAME      = TEME
TIME_SYSTEM    = UTC
MEAN_ELEMENT_THEORY = SGP/SGP4

EPOCH          = 2026-01-27T17:08:32.820000
MEAN_MOTION    = 15.56902953
ECCENTRICITY   = .00026243
INCLINATION    = 51.6290
RA_OF_ASC_NODE = 273.2941
ARG_OF_PERICENTER = 108.4931
MEAN_ANOMALY   = 251.6346

EPHEMERIS_TYPE = 0
CLASSIFICATION_TYPE = U
NORAD_CAT_ID   = 66912
ELEMENT_SET_NO = 999
REV_AT_EPOCH   = 875
BSTAR          = .10907405E-2
MEAN_MOTION_DOT = .80303E-3
MEAN_MOTION_DDOT = 0

